MEAN_MOTION;ECCENTRICITY;INCLINATION;RA_OF_ASC_NODE;ARG_OF_PERICENTER;MEAN_ANOMALY;BSTAR;MEAN_MOTION_DOT;MEAN_MOTION_DDOT;TYPE
14.88262585;0.0012209;97.5491;79.0162;211.9606;148.0872;2.6434E-5;1.93E-6;0;Amateur
14.88262699;0.001224;97.5492;79.3365;210.7723;149.2778;2.6336E-5;1.92E-6;0;Amateur
14.8826291;0.0012298;97.5491;79.9769;208.3917;151.6632;2.6272E-5;1.91E-6;0;Amateur
14.88263047;0.0012328;97.5491;80.2972;207.1976;152.8597;2.5955E-5;1.88E-6;0;Amateur
14.88263525;0.0012384;97.5491;80.9376;204.8117;155.2506;2.825E-5;2.09E-6;0;Amateur
14.88263672;0.0012412;97.5491;81.2579;203.6255;156.4394;2.7521E-5;2.03E-6;0;Amateur
14.88263885;0.0012436;97.5492;81.5141;202.6563;157.4107;2.8321E-5;2.1E-6;0;Amateur
14.88264126;0.0012466;97.5492;81.8983;201.2633;158.8067;2.8864E-5;2.15E-6;0;Amateur
14.88264328;0.0012494;97.5492;82.2186;200.0693;160.0035;2.8277E-5;2.1E-6;0;Amateur
14.88264509;0.0012514;97.5492;82.4748;199.1214;160.9535;2.8016E-5;2.07E-6;0;Amateur
14.88264615;0.0012534;97.5492;82.731;198.2007;161.8763;2.7254E-5;2.0E-6;0;Amateur
14.88265107;0.0012595;97.5493;83.4995;195.413;164.6706;2.6036E-5;1.89E-6;0;Amateur
14.88265245;0.0012615;97.5493;83.7557;194.4977;165.588;2.5681E-5;1.86E-6;0;Amateur
14.88265737;0.0012689;97.5494;84.6524;191.3103;168.7831;2.4908E-5;1.79E-6;0;Amateur
14.88265766;0.0012695;97.5494;84.7164;191.0873;169.0066;2.4871E-5;1.78E-6;0;Amateur
14.88266319;0.0012793;97.5494;85.7412;187.5062;172.5966;2.646E-5;1.93E-6;0;Amateur
14.88266319;0.0012793;97.5494;85.7412;187.5062;172.5966;2.646E-5;1.93E-6;0;Amateur
14.88266418;0.0012883;97.5495;86.6379;184.3832;175.7274;2.2226E-5;1.54E-6;0;Amateur
14.8826647;0.0012888;97.5495;86.7019;184.1665;175.9447;2.2765E-5;1.59E-6;0;Amateur
14.88266675;0.0012977;97.5495;87.5986;181.0349;179.0844;2.1249E-5;1.45E-6;0;Amateur
14.88266801;0.0013012;97.5495;87.9189;179.9179;180.2043;2.1294E-5;1.45E-6;0;Amateur
14.88267217;0.001308;97.5495;88.5594;177.673;182.455;2.3938E-5;1.7E-6;0;Amateur
14.88267395;0.0013108;97.5496;88.8796;176.5557;183.5753;2.4372E-5;1.74E-6;0;Amateur
14.88267713;0.0013173;97.5496;89.4561;174.5251;185.6113;2.5359E-5;1.83E-6;0;Amateur
14.88267974;0.0013213;97.5496;89.8404;173.1844;186.9555;2.6557E-5;1.94E-6;0;Amateur
14.88268171;0.0013238;97.5496;90.1607;172.0726;188.0703;2.6895E-5;1.97E-6;0;Amateur
14.88268247;0.0013268;97.5496;90.4809;170.9687;189.1772;2.5196E-5;1.81E-6;0;Amateur
14.88268393;0.0013299;97.5496;90.8012;169.861;190.2878;2.4748E-5;1.77E-6;0;Amateur
14.88268562;0.001333;97.5497;91.0574;168.9729;191.1783;2.4719E-5;1.77E-6;0;Amateur
14.88268798;0.001335;97.5496;91.3776;167.8891;192.265;2.6465E-5;1.93E-6;0;Amateur
14.88268983;0.0013381;97.5496;91.7619;166.5848;193.5728;2.6094E-5;1.9E-6;0;Amateur
14.8826914;0.0013404;97.5496;92.0182;165.719;194.4409;2.6277E-5;1.91E-6;0;Amateur
14.88269247;0.0013432;97.5496;92.3384;164.6517;195.5111;2.6259E-5;1.91E-6;0;Amateur
14.88269649;0.0013515;97.5496;93.2992;161.4609;198.7104;2.7048E-5;1.98E-6;0;Amateur
14.88269798;0.0013548;97.5496;93.6835;160.184;199.9907;2.6904E-5;1.97E-6;0;Amateur
14.88269987;0.0013591;97.5495;94.1959;158.4932;201.6859;2.6691E-5;1.95E-6;0;Amateur
14.88270217;0.0013657;97.5495;94.9005;156.1751;204.0101;2.5781E-5;1.87E-6;0;Amateur
14.8827033;0.0013688;97.5495;95.2207;155.1117;205.0764;2.5482E-5;1.84E-6;0;Amateur
14.88270626;0.0013763;97.5495;95.8613;153.0042;207.1894;2.4413E-5;1.74E-6;0;Amateur
14.88270775;0.0013796;97.5495;96.1815;151.9069;208.2896;2.4342E-5;1.73E-6;0;Amateur
14.88271463;0.0013889;97.5495;97.1423;148.7283;211.4763;2.6373E-5;1.92E-6;0;Amateur
14.88271463;0.0013889;97.5495;97.1423;148.7283;211.4763;2.6373E-5;1.92E-6;0;Amateur
14.88272117;0.0013964;97.5496;98.1031;145.5384;214.6741;2.6693E-5;1.95E-6;0;Amateur
14.88272117;0.0013964;97.5496;98.1031;145.5384;214.6741;2.6693E-5;1.95E-6;0;Amateur
14.88272572;0.0014009;97.5496;98.7436;143.4206;216.7971;2.7399E-5;2.02E-6;0;Amateur
14.88272742;0.0014028;97.5497;98.9998;142.5893;217.6304;2.7981E-5;2.07E-6;0;Amateur
14.88272834;0.0014031;97.5497;99.0639;142.3867;217.8334;2.8825E-5;2.15E-6;0;Amateur
14.88273203;0.0014069;97.5497;99.6404;140.5069;219.7176;2.9201E-5;2.18E-6;0;Amateur
14.88273357;0.001409;97.5497;99.9606;139.4846;220.7423;2.9395E-5;2.2E-6;0;Amateur
14.88273367;0.0014092;97.5497;100.0247;139.2812;220.9462;2.9018E-5;2.17E-6;0;Amateur
14.88273777;0.0014151;97.5498;100.9214;136.4315;223.8023;2.8486E-5;2.12E-6;0;Amateur
14.88273832;0.0014154;97.5498;100.9855;136.23;224.0042;2.8797E-5;2.15E-6;0;Amateur
14.88274223;0.0014214;97.5498;101.8823;133.3956;226.8448;2.827E-5;2.1E-6;0;Amateur
14.88274278;0.0014218;97.5498;101.9463;133.1979;227.0429;2.8661E-5;2.13E-6;0;Amateur
14.88274835;0.0014287;97.5498;102.8431;130.3753;229.8714;3.0458E-5;2.3E-6;0;Amateur
14.88275136;0.0014313;97.5498;103.1634;129.3736;230.8752;3.2456E-5;2.49E-6;0;Amateur
14.88275639;0.0014353;97.5498;103.7399;127.5338;232.7186;3.3945E-5;2.62E-6;0;Amateur
14.88276086;0.0014379;97.5498;104.1242;126.3075;233.9473;3.7146E-5;2.92E-6;0;Amateur
14.88276566;0.0014411;97.5498;104.7648;124.2331;236.0254;3.7077E-5;2.91E-6;0;Amateur
14.88276822;0.0014437;97.5498;105.085;123.2191;237.0413;3.7282E-5;2.93E-6;0;Amateur
14.88277338;0.0014467;97.5498;105.7256;121.1635;239.1003;3.7025E-5;2.91E-6;0;Amateur
14.88277741;0.0014485;97.5498;106.0459;120.1407;240.1248;3.941E-5;3.13E-6;0;Amateur
14.88278088;0.0014508;97.5498;106.6224;118.3098;241.9585;3.7099E-5;2.92E-6;0;Amateur
14.88278235;0.0014524;97.5498;107.0068;117.1075;243.1626;3.441E-5;2.67E-6;0;Amateur
14.88278624;0.0014543;97.5498;107.5833;115.3044;244.9681;3.4239E-5;2.65E-6;0;Amateur
14.88279089;0.0014563;97.5498;108.2879;113.1117;247.1637;3.4762E-5;2.7E-6;0;Amateur
14.88279167;0.0014575;97.5498;108.5441;112.3364;247.94;3.3009E-5;2.54E-6;0;Amateur
14.88279464;0.00146;97.5497;109.441;109.5422;250.7374;2.9474E-5;2.21E-6;0;Amateur
14.88279954;0.0014633;97.5497;110.4659;106.3729;253.9098;2.7598E-5;2.04E-6;0;Amateur
14.88280488;0.0014666;97.5497;111.2986;103.801;256.4841;2.7297E-5;2.01E-6;0;Amateur
14.8828084;0.001468;97.5498;111.747;102.4004;257.8858;2.8192E-5;2.09E-6;0;Amateur
14.88281151;0.0014699;97.5498;112.3236;100.6233;259.664;2.6311E-5;1.92E-6;0;Amateur
14.88281448;0.0014711;97.5498;112.7079;99.428;260.8601;2.707E-5;1.99E-6;0;Amateur
14.8828178;0.0014721;97.5498;113.3484;97.3862;262.9029;2.5555E-5;1.85E-6;0;Amateur
14.88282036;0.0014727;97.5499;113.6687;96.3641;263.9254;2.6621E-5;1.95E-6;0;Amateur
14.88282334;0.001473;97.5499;114.2453;94.5415;265.7485;2.6185E-5;1.91E-6;0;Amateur
14.88282546;0.001473;97.5499;114.6296;93.3633;266.9269;2.6579E-5;1.94E-6;0;Amateur
14.88282809;0.0014726;97.5499;115.2061;91.5586;268.7319;2.6601E-5;1.94E-6;0;Amateur
14.88282976;0.0014723;97.5499;115.5905;90.3779;269.9125;2.6771E-5;1.96E-6;0;Amateur
14.8828309;0.0014719;97.5499;115.8467;89.5727;270.7177;2.6637E-5;1.95E-6;0;Amateur
14.8828317;0.0014716;97.5499;116.167;88.6112;271.6791;2.6127E-5;1.9E-6;0;Amateur
14.88283475;0.0014712;97.5499;116.5514;87.4336;272.8565;2.8896E-5;2.16E-6;0;Amateur
14.88283603;0.0014709;97.5499;116.8076;86.6477;273.6423;2.9379E-5;2.2E-6;0;Amateur
14.88283572;0.0014705;97.5498;117.1279;85.6599;274.6299;2.7462E-5;2.02E-6;0;Amateur
14.88283791;0.0014704;97.5498;117.6404;84.0559;276.2334;2.7513E-5;2.03E-6;0;Amateur
14.88283863;0.0014702;97.5498;117.7685;83.6575;276.6317;2.7663E-5;2.04E-6;0;Amateur
14.88284017;0.0014699;97.5498;118.0888;82.6768;277.6119;2.7536E-5;2.03E-6;0;Amateur
14.8828433;0.0014695;97.5498;118.7294;80.714;279.5738;2.6825E-5;1.97E-6;0;Amateur
14.88284484;0.0014692;97.5498;119.0497;79.7003;280.587;2.6537E-5;1.94E-6;0;Amateur
14.88284805;0.0014689;97.5498;119.6902;77.7321;282.554;2.4834E-5;1.78E-6;0;Amateur
14.88284974;0.0014684;97.5497;120.0105;76.7298;283.5556;2.4723E-5;1.77E-6;0;Amateur
14.88285491;0.0014678;97.5497;120.6511;74.7317;285.5521;2.6631E-5;1.95E-6;0;Amateur
14.88285646;0.0014669;97.5497;120.9073;73.9501;286.3331;2.6741E-5;1.96E-6;0;Amateur
14.88286079;0.0014653;97.5497;121.612;71.7169;288.5641;2.6933E-5;1.98E-6;0;Amateur
14.88286228;0.0014643;97.5497;121.8682;70.9091;289.371;2.7748E-5;2.05E-6;0;Amateur
14.88286593;0.0014614;97.5497;122.5728;68.6955;291.5822;2.7773E-5;2.05E-6;0;Amateur
14.88286673;0.0014603;97.5497;122.829;67.8893;292.3873;2.7678E-5;2.04E-6;0;Amateur
14.88287035;0.0014566;97.5496;123.5337;65.6979;294.5758;2.829E-5;2.1E-6;0;Amateur
14.88287092;0.0014552;97.5496;123.7899;64.911;295.3616;2.7465E-5;2.02E-6;0;Amateur
14.88287484;0.001452;97.5496;124.4305;62.9057;297.364;2.9134E-5;2.18E-6;0;Amateur
14.88287493;0.0014506;97.5496;124.6868;62.1307;298.1378;2.778E-5;2.05E-6;0;Amateur
14.88287523;0.0014504;97.5496;124.7508;61.9135;298.3547;2.8016E-5;2.08E-6;0;Amateur
14.88287657;0.0014486;97.5496;125.1992;60.5149;299.7511;2.6639E-5;1.95E-6;0;Amateur
14.8828794;0.0014458;97.5496;125.7117;58.9309;301.3325;2.667E-5;1.95E-6;0;Amateur
14.88287994;0.0014453;97.5496;125.7758;58.7307;301.5324;2.6791E-5;1.96E-6;0;Amateur
14.882884;0.0014428;97.5496;126.3523;56.9457;303.3144;2.7023E-5;1.98E-6;0;Amateur
14.88288595;0.0014414;97.5496;126.6726;55.9251;304.3332;2.7613E-5;2.04E-6;0;Amateur
14.88288904;0.0014401;97.5496;126.9929;54.9259;305.3307;2.9155E-5;2.18E-6;0;Amateur
14.88289083;0.0014391;97.5497;127.3132;53.8974;306.3573;2.8337E-5;2.11E-6;0;Amateur
14.88289343;0.001436;97.5497;127.9537;51.8692;308.3817;2.5363E-5;1.83E-6;0;Amateur
14.88289803;0.0014323;97.5497;128.5943;49.8142;310.4327;2.5879E-5;1.88E-6;0;Amateur
14.8829013;0.0014301;97.5497;128.9146;48.8036;311.4412;2.8254E-5;2.1E-6;0;Amateur
14.88290379;0.0014265;97.5497;129.4912;46.9448;313.2962;2.6834E-5;1.97E-6;0;Amateur
14.88290602;0.0014234;97.5497;129.8755;45.7091;314.5292;2.7025E-5;1.98E-6;0;Amateur
14.88291051;0.0014155;97.5497;130.8364;42.6171;317.6142;2.7162E-5;2.0E-6;0;Amateur
14.88291308;0.0014119;97.5497;131.2848;41.1638;319.0642;2.8599E-5;2.13E-6;0;Amateur
14.88291636;0.0014045;97.5496;132.1176;38.5033;321.7184;2.7716E-5;2.05E-6;0;Amateur
14.88291689;0.0014031;97.5496;132.3098;37.8826;322.3376;2.735E-5;2.01E-6;0;Amateur
